{
  "type": "FeatureCollection",
  "features": [
    {
      "type": "Feature",
      "properties": {
        "norad_id": 56759,
        "name": "NVS-01 (IRNSS-1J)",
        "group": "gnss",
        "lat": 2.0960839978806605,
        "lon": -54.14399419348993,
        "alt_km": 35756.224738496225,
        "timestamp": "2025-12-21T05:44:51.830836+00:00",
        "meta_object_name": "NVS-01 (IRNSS-1J)",
        "meta_object_id": "2023-076A",
        "meta_epoch": "2025-12-20T22:24:21.800160",
        "meta_mean_motion": 1.00273488,
        "meta_eccentricity": 0.0008757,
        "meta_inclination": 2.5993,
        "meta_ra_of_asc_node": 251.3109,
        "meta_arg_of_pericenter": 16.2728,
        "meta_mean_anomaly": 287.8215,
        "meta_ephemeris_type": 0,
        "meta_classification_type": "U",
        "meta_norad_cat_id": 56759,
        "meta_element_set_no": 999,
        "meta_rev_at_epoch": 932,
        "meta_bstar": 0,
        "meta_mean_motion_dot": -3.1e-06,
        "meta_mean_motion_ddot": 0,
        "tle_line1": "1 56759U 23076A   25354.93358565 -.00000310  00000+0  00000+0 0  9996",
        "tle_line2": "2 56759   2.5993 251.3109 0008757  16.2728 287.8215  1.00273488  9326"
      },
      "geometry": {
        "type": "Point",
        "coordinates": [
          -54.14399419348993,
          2.0960839978806605
        ]
      }
    },
    {
      "type": "Feature",
      "properties": {
        "norad_id": 57517,
        "name": "COSMOS 2569 (703K)",
        "group": "gnss",
        "lat": -46.331481587218725,
        "lon": -72.44287720808134,
        "alt_km": 19119.14726922764,
        "timestamp": "2025-12-21T05:44:51.830847+00:00",
        "meta_object_name": "COSMOS 2569 (703K)",
        "meta_object_id": "2023-114A",
        "meta_epoch": "2025-12-20T11:11:48.591168",
        "meta_mean_motion": 2.13103983,
        "meta_eccentricity": 0.00107986,
        "meta_inclination": 65.1981,
        "meta_ra_of_asc_node": 78.6524,
        "meta_arg_of_pericenter": 287.0398,
        "meta_mean_anomaly": 72.8764,
        "meta_ephemeris_type": 0,
        "meta_classification_type": "U",
        "meta_norad_cat_id": 57517,
        "meta_element_set_no": 999,
        "meta_rev_at_epoch": 1845,
        "meta_bstar": 0,
        "meta_mean_motion_dot": -1.8e-07,
        "meta_mean_motion_ddot": 0,
        "tle_line1": "1 57517U 23114A   25354.46653462 -.00000018  00000+0  00000+0 0  9999",
        "tle_line2": "2 57517  65.1981  78.6524 0010798 287.0398  72.8764  2.13103983 18453"
      },
      "geometry": {
        "type": "Point",
        "coordinates": [
          -72.44287720808134,
          -46.331481587218725
        ]
      }
    },
    {
      "type": "Feature",
      "properties": {
        "norad_id": 58654,
        "name": "BEIDOU-3 M28 (C50)",
        "group": "gnss",
        "lat": 31.39917835690998,
        "lon": -136.3584531239576,
        "alt_km": 21529.25191231803,
        "timestamp": "2025-12-21T05:44:51.830858+00:00",
        "meta_object_name": "BEIDOU-3 M28 (C50)",
        "meta_object_id": "2023-207A",
        "meta_epoch": "2025-12-18T08:16:11.764704",
        "meta_mean_motion": 1.86229821,
        "meta_eccentricity": 0.00026501,
        "meta_inclination": 55.5892,
        "meta_ra_of_asc_node": 68.4116,
        "meta_arg_of_pericenter": 272.4264,
        "meta_mean_anomaly": 87.5728,
        "meta_ephemeris_type": 0,
        "meta_classification_type": "U",
        "meta_norad_cat_id": 58654,
        "meta_element_set_no": 999,
        "meta_rev_at_epoch": 1347,
        "meta_bstar": 0,
        "meta_mean_motion_dot": -6.6e-07,
        "meta_mean_motion_ddot": 0,
        "tle_line1": "1 58654U 23207A   25352.34458061 -.00000066  00000+0  00000+0 0  9991",
        "tle_line2": "2 58654  55.5892  68.4116 0002650 272.4264  87.5728  1.86229821 13471"
      },
      "geometry": {
        "type": "Point",
        "coordinates": [
          -136.3584531239576,
          31.39917835690998
        ]
      }
    },
    {
      "type": "Feature",
      "properties": {
        "norad_id": 58655,
        "name": "BEIDOU-3 M26 (C48)",
        "group": "gnss",
        "lat": -55.06987854530296,
        "lon": -10.153924811395985,
        "alt_km": 21523.198267228545,
        "timestamp": "2025-12-21T05:44:51.830871+00:00",
        "meta_object_name": "BEIDOU-3 M26 (C48)",
        "meta_object_id": "2023-207B",
        "meta_epoch": "2025-12-19T05:11:10.015296",
        "meta_mean_motion": 1.86231346,
        "meta_eccentricity": 0.0004042,
        "meta_inclination": 55.592,
        "meta_ra_of_asc_node": 68.3684,
        "meta_arg_of_pericenter": 258.4158,
        "meta_mean_anomaly": 101.5732,
        "meta_ephemeris_type": 0,
        "meta_classification_type": "U",
        "meta_norad_cat_id": 58655,
        "meta_element_set_no": 999,
        "meta_rev_at_epoch": 1347,
        "meta_bstar": 0,
        "meta_mean_motion_dot": -5.7e-07,
        "meta_mean_motion_ddot": 0,
        "tle_line1": "1 58655U 23207B   25353.21608814 -.00000057  00000+0  00000+0 0  9992",
        "tle_line2": "2 58655  55.5920  68.3684 0004042 258.4158 101.5732  1.86231346 13473"
      },
      "geometry": {
        "type": "Point",
        "coordinates": [
          -10.153924811395985,
          -55.06987854530296
        ]
      }
    },
    {
      "type": "Feature",
      "properties": {
        "norad_id": 59598,
        "name": "GSAT0225 (GALILEO 29)",
        "group": "gnss",
        "lat": 54.758010256798876,
        "lon": -155.86131228879046,
        "alt_km": 23215.78796848982,
        "timestamp": "2025-12-21T05:44:51.830883+00:00",
        "meta_object_name": "GSAT0225 (GALILEO 29)",
        "meta_object_id": "2024-079A",
        "meta_epoch": "2025-12-19T07:40:30.040032",
        "meta_mean_motion": 1.7047502,
        "meta_eccentricity": 0.0002191,
        "meta_inclination": 55.0052,
        "meta_ra_of_asc_node": 106.1117,
        "meta_arg_of_pericenter": 185.2617,
        "meta_mean_anomaly": 171.1938,
        "meta_ephemeris_type": 0,
        "meta_classification_type": "U",
        "meta_norad_cat_id": 59598,
        "meta_element_set_no": 999,
        "meta_rev_at_epoch": 1024,
        "meta_bstar": 0,
        "meta_mean_motion_dot": -6e-08,
        "meta_mean_motion_ddot": 0,
        "tle_line1": "1 59598U 24079A   25353.31979213 -.00000006  00000+0  00000+0 0  9996",
        "tle_line2": "2 59598  55.0052 106.1117 0002191 185.2617 171.1938  1.70475020 10248"
      },
      "geometry": {
        "type": "Point",
        "coordinates": [
          -155.86131228879046,
          54.758010256798876
        ]
      }
    },
    {
      "type": "Feature",
      "properties": {
        "norad_id": 59600,
        "name": "GSAT0227 (GALILEO 30)",
        "group": "gnss",
        "lat": -14.595923295951287,
        "lon": 95.55460402702583,
        "alt_km": 23230.274148106684,
        "timestamp": "2025-12-21T05:44:51.830894+00:00",
        "meta_object_name": "GSAT0227 (GALILEO 30)",
        "meta_object_id": "2024-079C",
        "meta_epoch": "2025-12-19T12:12:51.636672",
        "meta_mean_motion": 1.70474897,
        "meta_eccentricity": 0.0002924,
        "meta_inclination": 55.0006,
        "meta_ra_of_asc_node": 106.105,
        "meta_arg_of_pericenter": 116.8359,
        "meta_mean_anomaly": 243.1562,
        "meta_ephemeris_type": 0,
        "meta_classification_type": "U",
        "meta_norad_cat_id": 59600,
        "meta_element_set_no": 999,
        "meta_rev_at_epoch": 1030,
        "meta_bstar": 0,
        "meta_mean_motion_dot": -6e-08,
        "meta_mean_motion_ddot": 0,
        "tle_line1": "1 59600U 24079C   25353.50893098 -.00000006  00000+0  00000+0 0  9997",
        "tle_line2": "2 59600  55.0006 106.1050 0002924 116.8359 243.1562  1.70474897 10305"
      },
      "geometry": {
        "type": "Point",
        "coordinates": [
          95.55460402702583,
          -14.595923295951287
        ]
      }
    },
    {
      "type": "Feature",
      "properties": {
        "norad_id": 61182,
        "name": "GSAT0232 (GALILEO 32)",
        "group": "gnss",
        "lat": 2.8663558442132517,
        "lon": 44.22153118435262,
        "alt_km": 23217.311085271453,
        "timestamp": "2025-12-21T05:44:51.830905+00:00",
        "meta_object_name": "GSAT0232 (GALILEO 32)",
        "meta_object_id": "2024-167A",
        "meta_epoch": "2025-12-20T01:45:16.724736",
        "meta_mean_motion": 1.70473657,
        "meta_eccentricity": 0.00018786,
        "meta_inclination": 55.2386,
        "meta_ra_of_asc_node": 226.2297,
        "meta_arg_of_pericenter": 206.8342,
        "meta_mean_anomaly": 333.9154,
        "meta_ephemeris_type": 0,
        "meta_classification_type": "U",
        "meta_norad_cat_id": 61182,
        "meta_element_set_no": 999,
        "meta_rev_at_epoch": 782,
        "meta_bstar": 0,
        "meta_mean_motion_dot": 7e-07,
        "meta_mean_motion_ddot": 0,
        "tle_line1": "1 61182U 24167A   25354.07311024  .00000070  00000+0  00000+0 0  9990",
        "tle_line2": "2 61182  55.2386 226.2297 0001878 206.8342 333.9154  1.70473657  7823"
      },
      "geometry": {
        "type": "Point",
        "coordinates": [
          44.22153118435262,
          2.8663558442132517
        ]
      }
    }
  ]
}